1 45562U 20025AH  22365.14165168  .00001430  00000-0  11492-3 0  9999
2 45562  53.0552 274.4698 0001668  67.7283 292.3882 15.06382155149248
1 45562U 20025AH  22365.47338357  .00002055  00000-0  15688-3 0  9992
2 45562  53.0552 272.9807 0001606  72.2588 287.8576 15.06388443149890
1 45562U 20025AH  22365.73877020  .00002313  00000-0  17419-3 0  9997
2 45562  53.0554 271.7889 0001619  72.5561 287.5605 15.06392269149933
1 45562U 20025AH  23001.13685281  .00000510  00000-0  53149-4 0  9993
2 45562  53.0556 270.0017 0001736  72.3376 287.7802 15.06396846149994
1 45562U 20025AH  23001.86666651 -.00001053  00000-0 -51820-4 0  9992
2 45562  53.0553 266.7254 0001726  73.5315 286.5864 15.06401623150101
1 45562U 20025AH  23002.13205055 -.00001111  00000-0 -55696-4 0  9990
2 45562  53.0552 265.5338 0001713  74.4804 285.6374 15.06405830150143
1 45562U 20025AH  23002.13205055 -.00001111  00000-0 -55696-4 0  9990
2 45562  53.0552 265.5338 0001713  74.4804 285.6374 15.06405830149545
1 45562U 20025AH  23003.06090872  .00001357  00000-0  11000-3 0  9992
2 45562  53.0551 261.3641 0001637  75.1751 284.9419 15.06396369149682
1 45562U 20025AH  23003.12725405  .00001850  00000-0  14305-3 0  9995
2 45562  53.0551 261.0663 0001621  74.7153 285.4015 15.06399642150291
1 45562U 20025AH  23004.12247170 -.00001012  00000-0 -49043-4 0  9994
2 45562  53.0549 256.5988 0001545  73.3333 286.7825 15.06385351149841
1 45562U 20025AH  23004.38785584 -.00000408  00000-0 -84870-5 0  9994
2 45562  53.0551 255.4076 0001579  74.8129 285.3034 15.06391848149885
1 45562U 20025AH  23005.11765766  .00001734  00000-0  13526-3 0  9995
2 45562  53.0549 252.1312 0001558  74.6203 285.4958 15.06407517150594
1 45562U 20025AH  23005.11765766  .00001734  00000-0  13526-3 0  9995
2 45562  53.0549 252.1312 0001558  74.6203 285.4958 15.06407517149996
1 45562U 20025AH  23005.78111695  .00002027  00000-0  15485-3 0  9996
2 45562  53.0546 249.1526 0001463  75.5675 284.5476 15.06417152150694
1 45562U 20025AH  23006.37826565  .00000462  00000-0  49904-4 0  9996
2 45562  53.0545 246.4722 0001657  77.7767 282.3408 15.06382955150785
1 45562U 20025AH  23006.37826565  .00000462  00000-0  49904-4 0  9996
2 45562  53.0545 246.4722 0001657  77.7767 282.3408 15.06382955150189
1 45562U 20025AH  23007.04173683 -.00005162  00000-0 -32809-3 0  9996
2 45562  53.0537 243.4939 0001819  77.9540 282.1653 15.06378890150888
1 45562U 20025AH  23007.37346349 -.00000502  00000-0 -14828-4 0  9998
2 45562  53.0537 242.0048 0001272  82.9181 277.1953 15.06395607150932
1 45562U 20025AH  23007.37346349 -.00000502  00000-0 -14828-4 0  9998
2 45562  53.0537 242.0048 0001272  82.9181 277.1953 15.06395607150336
1 45562U 20025AH  23008.36867041  .00002456  00000-0  18375-3 0  9993
2 45562  53.0536 237.5371 0000871  85.2758 274.8330 15.06392438151088
1 45562U 20025AH  23008.76675619  .00003840  00000-0  27663-3 0  9993
2 45562  53.0539 235.7519 0001304  74.6579 285.4554 15.06383379150540
1 45562U 20025AH  23008.89944853  .00004148  00000-0  29729-3 0  9993
2 45562  53.0545 235.1551 0001166  83.1543 276.9578 15.06387018151163
1 45562U 20025AH  23009.03213768  .00002128  00000-0  16173-3 0  9999
2 45562  53.0543 234.5584 0001129  88.2634 271.8485 15.06399753151188
1 45562U 20025AH  23009.03213768  .00002128  00000-0  16173-3 0  9999
2 45562  53.0543 234.5584 0001129  88.2634 271.8485 15.06399753150581
1 45562U 20025AH  23009.89464471  .00001622  00000-0  12774-3 0  9993
2 45562  53.0528 230.6867 0001185  86.4825 273.6299 15.06404394151312
1 45562U 20025AH  23010.29272324  .00001534  00000-0  12181-3 0  9997
2 45562  53.0529 228.8997 0001175  88.3243 271.7880 15.06406767151377
1 45562U 20025AH  23010.29272324  .00001534  00000-0  12181-3 0  9997
2 45562  53.0529 228.8997 0001175  88.3243 271.7880 15.06406767150770
1 45562U 20025AH  23010.62445975  .00000527  00000-0  54271-4 0  9996
2 45562  53.0524 227.4107 0001279  88.8826 271.2309 15.06400597151429
1 45562U 20025AH  23010.62445975  .00000527  00000-0  54271-4 0  9996
2 45562  53.0524 227.4107 0001279  88.8826 271.2309 15.06400597150822
1 45562U 20025AH  23011.35427515 -.00000576  00000-0 -19774-4 0  9992
2 45562  53.0531 224.1346 0001272  87.2169 272.8966 15.06398699151539
1 45562U 20025AH  23011.68600605  .00001836  00000-0  14212-3 0  9990
2 45562  53.0541 222.6453 0001322  89.5451 270.5689 15.06403825151587
1 45562U 20025AH  23011.68600605  .00001836  00000-0  14212-3 0  9990
2 45562  53.0541 222.6453 0001322  89.5451 270.5689 15.06403825150980
1 45562U 20025AH  23012.68121913 -.00002505  00000-0 -14940-3 0  9995
2 45562  53.0529 218.1781 0001318  82.5923 277.5216 15.06384787151734
1 45562U 20025AH  23012.68121913 -.00002505  00000-0 -14940-3 0  9995
2 45562  53.0529 218.1781 0001318  82.5923 277.5216 15.06384787151138
1 45562U 20025AH  23013.27834358 -.00000601  00000-0 -21447-4 0  9991
2 45562  53.0523 215.4974 0001485  84.5111 275.6048 15.06389583151829
1 45562U 20025AH  23013.80911904  .00000638  00000-0  61727-4 0  9996
2 45562  53.0527 213.1138 0001315  88.7573 271.3567 15.06393789151901
1 45562U 20025AH  23013.80911904  .00000638  00000-0  61727-4 0  9996
2 45562  53.0527 213.1138 0001315  88.7573 271.3567 15.06393789151305
1 45562U 20025AH  23014.93701258  .00013718  00000-0  93748-3 0  9990
2 45562  53.0536 208.0516 0001210  77.7931 282.3193 15.06423184151476
1 45562U 20025AH  23015.33509453  .00008199  00000-0  56847-3 0  9994
2 45562  53.0525 206.2638 0001569  88.3387 271.7782 15.06414920151530
1 45562U 20025AH  23015.53413504  .00004273  00000-0  30547-3 0  9995
2 45562  53.0557 205.3723 0000833  76.5108 283.5974 15.06409386152167
1 45562U 20025AH  23015.79952158  .00004806  00000-0  34125-3 0  9994
2 45562  53.0540 204.1791 0001218  88.5072 271.6056 15.06410201152204
1 45562U 20025AH  23015.79952158  .00004806  00000-0  34125-3 0  9994
2 45562  53.0540 204.1791 0001218  88.5072 271.6056 15.06410201151607
1 45562U 20025AH  23016.46298869  .00001524  00000-0  12118-3 0  9993
2 45562  53.0537 201.2006 0001308  91.4704 268.6434 15.06403679152300
1 45562U 20025AH  23016.46298869  .00001524  00000-0  12118-3 0  9993
2 45562  53.0537 201.2006 0001308  91.4704 268.6434 15.06403679151703
1 45562U 20025AH  23016.79472296 -.00000754  00000-0 -31745-4 0  9991
2 45562  53.0536 199.7108 0001298  93.0443 267.0695 15.06401327152354
1 45562U 20025AH  23017.45819460 -.00000429  00000-0 -98906-5 0  9995
2 45562  53.0538 196.7328 0001256  92.8888 267.2244 15.06394988151851
1 45562U 20025AH  23017.52454342 -.00000839  00000-0 -37425-4 0  9990
2 45562  53.0538 196.4347 0001256  93.0581 267.0551 15.06391588152462
1 45562U 20025AH  23017.78993272  .00000200  00000-0  32291-4 0  9994
2 45562  53.0549 195.2435 0001237  93.7889 266.3241 15.06393973152509
1 45562U 20025AH  23018.51974465  .00001151  00000-0  96131-4 0  9998
2 45562  53.0553 191.9672 0001240  96.5231 263.5899 15.06398441152611
1 45562U 20025AH  23018.78512828  .00001690  00000-0  13228-3 0  9991
2 45562  53.0548 190.7756 0001202  96.0029 264.1097 15.06402766152054
1 45562U 20025AH  23018.85147499  .00001768  00000-0  13753-3 0  9996
2 45562  53.0548 190.4778 0001204  96.0001 264.1126 15.06403262152669
1 45562U 20025AH  23019.44860410  .00001291  00000-0  10553-3 0  9993
2 45562  53.0531 187.7965 0001167  95.5822 264.5300 15.06392754152156
1 45562U 20025AH  23019.51495191  .00001347  00000-0  10935-3 0  9997
2 45562  53.0522 187.4980 0001088  93.0629 267.0485 15.06390772152767
1 45562U 20025AH  23019.78033403  .00001517  00000-0  12072-3 0  9993
2 45562  53.0557 186.3085 0001056  92.0660 268.0449 15.06399864152209
1 45562U 20025AH  23020.17841791  .00000841  00000-0  75365-4 0  9999
2 45562  53.0551 184.5209 0001157  91.5615 268.5507 15.06397570152861
1 45562U 20025AH  23020.84187975  .00000322  00000-0  40508-4 0  9995
2 45562  53.0559 181.5423 0001139  89.4868 270.6251 15.06407664152361
1 45562U 20025AH  23021.43900846  .00000893  00000-0  78824-4 0  9996
2 45562  53.0564 178.8634 0001344  90.1322 269.9821 15.06395577152455
1 45562U 20025AH  23022.76594195 -.00000148  00000-0  89384-5 0  9997
2 45562  53.0564 172.9067 0001211  87.3226 272.7902 15.06403518152653
1 45562U 20025AH  23023.09768018 -.00000616  00000-0 -22491-4 0  9997
2 45562  53.0571 171.4156 0001220  87.4473 272.6655 15.06397731152708
1 45562U 20025AH  23023.42941951 -.00000186  00000-0  63875-5 0  9996
2 45562  53.0557 169.9277 0001370  90.2173 269.8973 15.06391436152755
1 45562U 20025AH  23024.09288006  .00000451  00000-0  49166-4 0  9995
2 45562  53.0553 166.9491 0001352  92.6456 267.4687 15.06401689152855
1 45562U 20025AH  23025.08808719  .00000095  00000-0  25236-4 0  9990
2 45562  53.0560 162.4821 0001222  91.1942 268.9187 15.06398240153008
1 45562U 20025AH  23025.41982826  .00000062  00000-0  23045-4 0  9999
2 45562  53.0571 160.9936 0001374 100.6549 259.4594 15.06390292153058
1 45562U 20025AH  23025.55251999  .00000716  00000-0  66993-4 0  9999
2 45562  53.0579 160.3982 0001412  97.7439 262.3711 15.06392849153670
1 45562U 20025AH  23025.68521009  .00000604  00000-0  59414-4 0  9991
2 45562  53.0566 159.8018 0001202  95.4771 264.6355 15.06398170153694
1 45562U 20025AH  23025.68521009  .00000604  00000-0  59414-4 0  9991
2 45562  53.0566 159.8018 0001202  95.4771 264.6355 15.06398170153098
1 45562U 20025AH  23026.61406503  .00000560  00000-0  56449-4 0  9992
2 45562  53.0562 155.6315 0001104  80.2390 279.8724 15.06401195153830
1 45562U 20025AH  23027.34388260  .00001476  00000-0  11796-3 0  9994
2 45562  53.0566 152.3568 0001083  84.2490 275.8622 15.06394081153343
1 45562U 20025AH  23027.60926852  .00000177  00000-0  30806-4 0  9999
2 45562  53.0568 151.1668 0001355  83.0410 277.0733 15.06401384153986
1 45562U 20025AH  23028.47178100  .00000057  00000-0  22740-4 0  9995
2 45562  53.0563 147.2951 0001249  74.3039 285.8087 15.06395843153514
1 45562U 20025AH  23028.53812775  .00000071  00000-0  23630-4 0  9990
2 45562  53.0565 146.9975 0001271  73.9626 286.1503 15.06396120154124
1 45562U 20025AH  23028.73716186 -.00000044  00000-0  15921-4 0  9996
2 45562  53.0562 146.1014 0001157  96.6843 263.4278 15.06404110154152
1 45562U 20025AH  23028.73716186 -.00000044  00000-0  15921-4 0  9996
2 45562  53.0562 146.1014 0001157  96.6843 263.4278 15.06404110153555
1 45562U 20025AH  23029.46698548 -.00001079  00000-0 -53558-4 0  9996
2 45562  53.0571 142.8212 0001499 128.2394 231.8731 15.06395513153661
1 45562U 20025AH  23029.73237059 -.00000089  00000-0  12888-4 0  9992
2 45562  53.0553 141.6344 0001075  81.1479 278.9632 15.06398521154301
1 45562U 20025AH  23030.46219069  .00000025  00000-0  20601-4 0  9996
2 45562  53.0559 138.3586 0001133  96.0679 264.0439 15.06393209154411
1 45562U 20025AH  23031.05931132  .00001232  00000-0  10161-3 0  9994
2 45562  53.0558 135.6784 0001101  99.2793 260.8321 15.06393103153907
1 45562U 20025AH  23031.52373956 -.00000067  00000-0  14388-4 0  9992
2 45562  53.0557 133.5937 0001062  93.1327 266.9784 15.06399300154574
1 45562U 20025AH  23031.98816141  .00001108  00000-0  93272-4 0  9995
2 45562  53.0557 131.5087 0001161  94.4030 265.7091 15.06403976154048
